{
    "links": {
        "self": "http://www.neowsapp.com/rest/v1/neo/3781351?api_key=iIulBulltgU6a56xZRHN4H3l9WmuAYTsLGpBGhQ2"
    },
    "id": "3781351",
    "neo_reference_id": "3781351",
    "name": "(2017 OA69)",
    "designation": "2017 OA69",
    "nasa_jpl_url": "http://ssd.jpl.nasa.gov/sbdb.cgi?sstr=3781351",
    "absolute_magnitude_h": 22.1,
    "estimated_diameter": {
        "kilometers": {
            "estimated_diameter_min": 0.1010543415,
            "estimated_diameter_max": 0.2259643771
        },
        "meters": {
            "estimated_diameter_min": 101.054341542,
            "estimated_diameter_max": 225.9643771094
        },
        "miles": {
            "estimated_diameter_min": 0.0627922373,
            "estimated_diameter_max": 0.140407711
        },
        "feet": {
            "estimated_diameter_min": 331.5431259047,
            "estimated_diameter_max": 741.3529669956
        }
    },
    "is_potentially_hazardous_asteroid": false,
    "close_approach_data": [
        {
            "close_approach_date": "2017-02-09",
            "close_approach_date_full": "2017-Feb-09 00:07",
            "epoch_date_close_approach": 1486598820000,
            "relative_velocity": {
                "kilometers_per_second": "24.3928155681",
                "kilometers_per_hour": "87814.1360453058",
                "miles_per_hour": "54564.2891443735"
            },
            "miss_distance": {
                "astronomical": "0.4712167669",
                "lunar": "183.3033223241",
                "kilometers": "70493024.636526503",
                "miles": "43802334.3679036214"
            },
            "orbiting_body": "Earth"
        },
        {
            "close_approach_date": "2017-07-27",
            "close_approach_date_full": "2017-Jul-27 07:15",
            "epoch_date_close_approach": 1501139700000,
            "relative_velocity": {
                "kilometers_per_second": "22.1685197319",
                "kilometers_per_hour": "79806.671034903",
                "miles_per_hour": "49588.7617883263"
            },
            "miss_distance": {
                "astronomical": "0.2317505723",
                "lunar": "90.1509726247",
                "kilometers": "34669391.987361001",
                "miles": "21542561.2391077738"
            },
            "orbiting_body": "Earth"
        }
    ],
    "orbital_data": {
        "orbit_id": "2",
        "orbit_determination_date": "2017-12-11 06:20:25",
        "first_observation_date": "2017-07-25",
        "last_observation_date": "2017-07-29",
        "data_arc_in_days": 4,
        "observations_used": 10,
        "orbit_uncertainty": "9",
        "minimum_orbit_intersection": ".180269",
        "jupiter_tisserand_invariant": "4.335",
        "epoch_osculation": "2457962.5",
        "eccentricity": ".2857265421525294",
        "semi_major_axis": "1.43882906556414",
        "inclination": "44.54766482158766",
        "ascending_node_longitude": "129.9519725888926",
        "orbital_period": "630.3942314445111",
        "perihelion_distance": "1.027717411911943",
        "perihelion_argument": "109.2255460993836",
        "aphelion_distance": "1.849940719216337",
        "perihelion_time": "2457886.737168601828",
        "mean_anomaly": "43.26597221685189",
        "mean_motion": ".5710712155076059",
        "equinox": "J2000",
        "orbit_class": {
            "orbit_class_type": "AMO",
            "orbit_class_description": "Near-Earth asteroid orbits similar to that of 1221 Amor",
            "orbit_class_range": "1.017 AU < q (perihelion) < 1.3 AU"
        }
    },
    "is_sentry_object": false
}